COSMOS 2361 [-]         
1 25590U 98076A   23074.24904753  .00000110  00000+0  10229-3 0  9999
2 25590  82.9390   5.9845 0031531 173.3878 351.4296 13.73050727213691
COSMOS 2378 [-]         
1 26818U 01023A   23074.39495389  .00000114  00000+0  10483-3 0  9991
2 26818  82.9309  23.4152 0034138 119.3417 358.5592 13.73992903 91519
COSMOS 2389 [-]         
1 27436U 02026A   23073.68968556  .00000086  00000+0  73660-4 0  9999
2 27436  82.9536 330.0395 0046127 343.3997  39.6197 13.75002727 43509
COSMOS 2398 [-]         
1 27818U 03023A   23073.86079447  .00000083  00000+0  73820-4 0  9998
2 27818  82.9458 292.3795 0031909  23.2194 347.6192 13.72236101990471
COSMOS 2407 [+]         
1 28380U 04028A   23074.23746003  .00000119  00000+0  10667-3 0  9999
2 28380  82.9586 235.9344 0038777 342.0241 191.6916 13.76142366936391
COSMOS 2414 [+]         
1 28521U 05002A   23074.14561292  .00000191  00000+0  14653-3 0  9993
2 28521  82.9497 223.5595 0041402 121.6119 238.9095 13.87692526919095
COSMOS 2429 [-]         
1 32052U 07038A   23074.14940404  .00000111  00000+0  99790-4 0  9992
2 32052  82.9855   2.8620 0037673 320.1837  39.6556 13.74989606778198
COSMOS 2454 [-]         
1 35635U 09039A   23074.45983995  .00000165  00000+0  12110-3 0  9990
2 35635  82.9583 209.1699 0020345  65.2276   1.1819 13.89721340692338
COSMOS 2463 [+]         
1 36519U 10017A   23074.15894285  .00000103  00000+0  97353-4 0  9995
2 36519  82.9607  43.9641 0035842 189.8375 181.2077 13.71499084644891
